satname,norad_id,inclination_deg,eccentricity,mean_motion_rev_per_day,perigee_km,apogee_km,l1,l2
STARLINK-1143,45179,53.0475,0.0006152,15.59833542,383.97580176226256,392.3010270321365,1 45179U 20012B   26057.91668981  .00197350  00000+0  23589-2 0  9992,2 45179  53.0475  22.4960 0006152  55.3402 169.9341 15.59833542  5720
STARLINK-1202,45183,53.1613,0.0001391,15.30194218,474.2790298091859,476.18563715775963,1 45183U 20012F   26057.38905425  .00001506  00000+0  62979-4 0  9990,2 45183  53.1613  91.7410 0001391  91.0511 269.0649 15.30194218333228
STARLINK-1216,45185,53.1605,0.0001135,15.3020097,474.4343180445421,475.9900283068537,1 45185U 20012H   26057.37956402  .00002747  00000+0  10485-3 0  9994,2 45185  53.1605  91.7649 0001135  85.8289 274.2841 15.30200970333162
STARLINK-1225,45187,53.1601,0.0001221,15.30201766,474.37300282287015,476.0465901105681,1 45187U 20012K   26057.50710094  .00003170  00000+0  11909-3 0  9999,2 45187  53.1601  91.6125 0001221  81.1429 278.9710 15.30201766333226
STARLINK-1230,45189,53.1611,0.0001459,15.30206011,474.19722026720774,476.1970231639234,1 45189U 20012M   26057.38596633  .00001201  00000+0  52661-4 0  9992,2 45189  53.1611  92.2355 0001459  92.2295 267.8873 15.30206011330433
STARLINK-1234,45190,53.0454,0.0004226,15.59353274,386.6676328443591,392.3876630047853,1 45190U 20012N   26057.31797145  .00105590  00000+0  13035-2 0  9994,2 45190  53.0454  20.7684 0004226 293.5897  66.4671 15.59353274334101
STARLINK-1269,45197,53.1618,0.0001428,15.30192327,474.2593177628878,476.21664165709353,1 45197U 20012V   26057.38278876  .00001434  00000+0  60560-4 0  9992,2 45197  53.1618  92.1099 0001428  95.8327 264.2837 15.30192327333184
STARLINK-1154,45198,53.0501,0.0006993,15.44009346,429.52653856923735,439.05439962751825,1 45198U 20012W   26057.30062954  .00079786  00000+0  17127-2 0  9997,2 45198  53.0501  64.2479 0006993  40.5680 319.5845 15.44009346333533
STARLINK-1199,45201,53.1547,0.0001318,15.29332382,476.90323162430104,478.71045842184867,1 45201U 20012Z   26057.91668981  .00068108  00000+0  23527-2 0  9998,2 45201  53.1547  73.8173 0001318  98.9741 166.1149 15.29332382  5729
STARLINK-1209,45206,53.0483,0.0006115,15.48704565,416.3572694530958,424.6720204148496,1 45206U 20012AE  26057.19662244  .00116003  00000+0  21058-2 0  9994,2 45206  53.0483  28.5857 0006115 251.7895 108.2446 15.48704565333130
STARLINK-1210,45207,53.0065,0.0003961,16.13995633,233.2850161281758,238.5246600723185,1 45207U 20012AF  26057.85289736  .01005755  65514-3  79974-3 0  9997,2 45207  53.0065 315.0015 0003961 196.3690 163.7217 16.13995633335179
STARLINK-1231,45212,53.0502,0.0004314,15.19948332,503.02680351245,508.966433998713,1 45212U 20012AL  26057.30848233  .00031711  00000+0  14644-2 0  9993,2 45212  53.0502  68.0120 0004314  34.0029 326.1242 15.19948332333495
STARLINK-1271,45217,53.1526,0.0001626,15.29275332,476.8625482395719,479.0921566269826,1 45217U 20012AR  26057.91668981  .00105425  00000+0  36231-2 0  9995,2 45217  53.1526  73.9792 0001626  84.0748 172.3836 15.29275332  5842
STARLINK-1191,45222,53.159,0.0001407,15.30394666,473.6697085793876,475.59807830880345,1 45222U 20012AW  26057.36997873 -.00073824  00000+0 -24900-2 0  9994,2 45222  53.1590  51.4038 0001407  72.2447 287.8708 15.30394666333786
STARLINK-1212,45223,53.0509,0.0005834,15.4966387,413.7438976924841,421.67329033157694,1 45223U 20012AX  26057.91668981  .00096608  00000+0  17013-2 0  9991,2 45223  53.0509  41.8483 0005834  63.5442  53.4324 15.49663870  5838
STARLINK-1215,45225,53.1609,0.0001277,15.30187042,474.3785819446157,476.1289379447053,1 45225U 20012AZ  26057.35624758  .00001726  00000+0  70404-4 0  9997,2 45225  53.1609  50.9466 0001277  94.8930 265.2217 15.30187042333740
STARLINK-1221,45227,53.0676,0.0002906,15.41443288,439.8669682380241,443.8307440176068,1 45227U 20012BB  26057.11300530  .00015745  00000+0  37937-3 0  9991,2 45227  53.0676 324.4535 0002906  25.0585 335.0560 15.41443288334920
STARLINK-1222,45228,53.0574,0.000405,15.48796036,417.4936138339608,423.00030484102444,1 45228U 20012BC  26057.65324038  .00043566  00000+0  80103-3 0  9995,2 45228  53.0574  35.6921 0004050  53.9926 306.1456 15.48796036333919
STARLINK-1226,45229,53.1609,0.0001579,15.31015822,471.6984938766782,473.86201354540026,1 45229U 20012BD  26057.38586985  .00000090  00000+0  14914-4 0  9990,2 45229  53.1609  51.1163 0001579 103.4251 256.6926 15.31015822333680
STARLINK-1227,45230,53.1612,0.000127,15.31038957,471.84118125056375,473.58129670326343,1 45230U 20012BE  26057.67461589 -.00000998  00000+0 -20920-4 0  9999,2 45230  53.1612  50.0950 0001270  82.3585 277.7560 15.31038957333841
STARLINK-1246,45235,53.1612,0.0001487,15.30171909,474.27983943995605,476.3180512901072,1 45235U 20012BK  26057.32692325 -.00000726  00000+0 -12402-4 0  9995,2 45235  53.1612  92.0272 0001487  85.7539 274.3632 15.30171909333235
STARLINK-1270,45237,53.0501,0.0004129,15.44848838,429.0104357968012,434.63410016029775,1 45237U 20012BM  26057.33327666  .00082634  00000+0  17239-2 0  9998,2 45237  53.0501  41.7153 0004129  35.7190 324.4091 15.44848838333914
STARLINK-1279,45360,53.0435,0.0002191,15.55143167,400.2510222156561,403.2219627800696,1 45360U 20019A   26057.65129874  .00094586  00000+0  13691-2 0  9995,2 45360  53.0435 152.1615 0002191 163.3314 196.7768 15.55143167328954
STARLINK-1301,45361,53.0424,0.0003381,15.62422025,378.37802018962975,382.9483208649399,1 45361U 20019B   26057.91668981  .00087727  00000+0  96582-3 0  9992,2 45361  53.0424 156.8567 0003381 172.3162 149.5011 15.62422025  5504
STARLINK-1262,45366,53.1003,0.0001048,15.17466451,512.7785262764719,514.2230135530453,1 45366U 20019G   26057.91668981  .00116626  00000+0  56771-2 0  9993,2 45366  53.1003 214.6399 0001048  78.1027 323.0844 15.17466451  5841
STARLINK-1273,45367,53.0507,3.81e-05,15.43029896,436.91332776813124,437.4326543894522,1 45367U 20019H   26057.39776337  .00036926  00000+0  82937-3 0  9999,2 45367  53.0507 208.4702 0000381 258.4704 101.6258 15.43029896328151
STARLINK-1276,45368,53.0535,0.0001157,15.06397894,546.4167489575275,548.0192761074277,1 45368U 20019J   26056.87492528  .00000372  00000+0  43841-4 0  9997,2 45368  53.0535 219.6549 0001157  89.1202 270.9919 15.06397894327956
STARLINK-1277,45369,53.0495,7.21e-05,15.46669502,425.9863713729228,426.96759670942174,1 45369U 20019K   26057.39399270  .00086176  00000+0  16884-2 0  9997,2 45369  53.0495 206.6295 0000721   7.7360 352.3658 15.46669502328186
STARLINK-1281,45370,53.0918,0.0001297,15.15711269,517.9255173466963,519.7145880061607,1 45370U 20019L   26057.91668981  .00114108  00000+0  58418-2 0  9991,2 45370  53.0918 214.8088 0001297  75.1060 333.2100 15.15711269  5629
STARLINK-1300,45374,53.0895,0.0001409,15.14966902,520.106945021429,522.0511441027875,1 45374U 20019Q   26057.91668981  .01549835  00000+0  75681-1 0  9995,2 45374  53.0895 214.8488 0001409 116.1338 150.1232 15.14966902  5683
STARLINK-1302,45375,53.0537,0.0002387,15.47519708,422.36078999237634,425.6081227756531,1 45375U 20019R   26056.84106142  .00029918  00000+0  57878-3 0  9997,2 45375  53.0537 208.6054 0002387 229.2448 130.8352 15.47519708328108
STARLINK-1304,45376,53.0519,0.0002086,15.46104188,426.7157768528614,429.5553537671085,1 45376U 20019S   26057.66392348  .00083485  00000+0  16686-2 0  9994,2 45376  53.0519 202.1802 0002086 203.8396 156.2514 15.46104188328265
STARLINK-1305,45377,53.0452,0.0003473,15.50643058,412.48816426311896,417.206571204948,1 45377U 20019T   26057.76157902  .00095711  00000+0  16290-2 0  9997,2 45377  53.0452 184.8476 0003473 116.2509 243.8856 15.50643058328529
STARLINK-1319,45379,53.0447,0.0002522,15.56411984,396.34231476619425,399.76022412930433,1 45379U 20019V   26057.53970270  .00041442  00000+0  58008-3 0  9991,2 45379  53.0447 184.2139 0002522 134.8041 225.3175 15.56411984328511
STARLINK-1266,45383,53.0508,0.0001822,15.43503145,434.5383426798071,437.0213339756938,1 45383U 20019Z   26057.72285877  .00026709  00000+0  59375-3 0  9996,2 45383  53.0508 185.1502 0001822 333.0746  27.0164 15.43503145328506
STARLINK-1267,45384,53.0514,0.0004746,15.47619647,420.4634697598094,426.9197654836562,1 45384U 20019AA  26057.71342231  .00083070  00000+0  15754-2 0  9990,2 45384  53.0514 179.5640 0004746 206.4281 153.6485 15.47619647328588
STARLINK-1272,45386,53.0444,0.000243,15.54071677,403.2042265225846,406.50075941616706,1 45386U 20019AC  26057.91668981  .00055559  00000+0  84339-3 0  9994,2 45386  53.0444 161.8888 0002430 140.3835 109.6637 15.54071677  5742
STARLINK-1274,45387,53.0288,0.0005487,15.45499484,426.17525670065515,433.64640839209096,1 45387U 20019AD  26057.53934787  .00043958  00000+0  90533-3 0  9996,2 45387  53.0288 156.1566 0005487 195.0470 165.0374 15.45499484328894
STARLINK-1280,45388,53.0431,0.0001985,15.63602012,375.9214010761016,378.6032946171972,1 45388U 20019AE  26057.91668981  .00113445  00000+0  11874-2 0  9998,2 45388  53.0431 175.3409 0001985 131.1528 209.2694 15.63602012  5710
STARLINK-1283,45389,53.0461,0.0006313,15.53779528,401.4200748974563,409.9853509189743,1 45389U 20019AF  26057.53755527  .00106692  00000+0  16187-2 0  9998,2 45389  53.0461 163.9213 0006313 192.1730 167.9128 15.53779528328796
STARLINK-1284,45390,53.0504,0.0001358,15.49618764,416.9175743953174,418.7633618756636,1 45390U 20019AG  26057.72176669  .00084981  00000+0  15028-2 0  9994,2 45390  53.0504 183.6751 0001358 325.0323  35.0595 15.49618764328524
STARLINK-1297,45395,53.0486,0.0001991,15.51762022,410.22956202920886,412.93322789408194,1 45395U 20019AM  26057.74861462  .00090137  00000+0  14759-2 0  9993,2 45395  53.0486 183.4340 0001991 333.8103  26.2805 15.51762022327712
STARLINK-1307,45397,53.0545,9.4e-05,15.49352828,417.97920681627875,419.25699677541706,1 45397U 20019AP  26057.71912576  .00027624  00000+0  50217-3 0  9996,2 45397  53.0545 183.3556 0000940  46.4717 313.6369 15.49352828328354
